NORAD_CAT_ID,OBJECT_NAME,OBJECT_TYPE,EPOCH,MEAN_MOTION,ECCENTRICITY,INCLINATION,RA_OF_ASC_NODE,ARG_OF_PERICENTER,MEAN_ANOMALY,BSTAR,MEAN_MOTION_DOT,MEAN_MOTION_DDOT,TLE_LINE0,TLE_LINE1,TLE_LINE2,SEMIMAJOR_AXIS,PERIOD,APOGEE,PERIGEE,DECAYED
55754.0,STARLINK-5612,PAYLOAD,2024-05-19 07:27:11,14.98335176,0.0002919,69.9993,106.902,265.8475,94.2351,-3.3628e-05,-4.94e-06,0.0,0 STARLINK-5612,1 55754U 23028P   24140.31054548 -.00000494  00000-0 -33628-4 0  9997,2 55754  69.9993 106.9020 0002919 265.8475  94.2351 14.98335176 67272,6950.177,96.107,574.071,570.013,0.0
55754.0,STARLINK-5612,PAYLOAD,2024-05-20 04:16:57,14.98315798,0.0002914,69.999,104.7145,268.0566,92.026,2.237e-06,-6.6e-07,0.0,0 STARLINK-5612,1 55754U 23028P   24141.17844055 -.00000066  00000-0  22370-5 0  9999,2 55754  69.9990 104.7145 0002914 268.0566  92.0260 14.98315798 67402,6950.237,96.108,574.127,570.077,0.0
55754.0,STARLINK-5612,PAYLOAD,2024-05-20 07:29:13,14.98318704,0.0002966,69.999,104.3779,269.6611,90.4208,-1.8836e-05,-3.18e-06,0.0,0 STARLINK-5612,1 55754U 23028P   24141.31196010 -.00000318  00000-0 -18836-4 0  9998,2 55754  69.9990 104.3779 0002966 269.6611  90.4208 14.98318704 67422,6950.228,96.108,574.154,570.031,0.0
55754.0,STARLINK-5612,PAYLOAD,2024-05-20 20:18:17,14.98327686,0.0003559,69.9974,103.03,266.5833,93.4919,0.00016927,1.927e-05,0.0,0 STARLINK-5612,1 55754U 23028P   24141.84603029  .00001927  00000-0  16927-3 0  9992,2 55754  69.9974 103.0300 0003559 266.5833  93.4919 14.98327686 67501,6950.2,96.107,574.539,569.591,0.0
55754.0,STARLINK-5612,PAYLOAD,2024-05-21 04:18:54,14.98355163,0.0002401,70.002,102.193,218.5763,141.5225,0.00044638,5.241e-05,0.0,0 STARLINK-5612,1 55754U 23028P   24142.17980295  .00005241  00000-0  44638-3 0  9995,2 55754  70.0020 102.1930 0002401 218.5763 141.5225 14.98355163 67550,6950.115,96.105,573.649,570.311,0.0
55754.0,STARLINK-5612,PAYLOAD,2024-05-21 07:31:10,14.98368664,0.0002685,69.9996,101.854,263.8285,96.2568,0.00049716,5.85e-05,0.0,0 STARLINK-5612,1 55754U 23028P   24142.31331114  .00005850  00000-0  49716-3 0  9999,2 55754  69.9996 101.8540 0002685 263.8285  96.2568 14.98368664 67576,6950.073,96.105,573.804,570.072,0.0
55754.0,STARLINK-5612,PAYLOAD,2024-05-21 21:56:25,14.98327287,0.0003605,69.9971,100.339,261.9274,98.1476,6.2348e-05,6.51e-06,0.0,0 STARLINK-5612,1 55754U 23028P   24142.91418199  .00000651  00000-0  62348-4 0  9995,2 55754  69.9971 100.3390 0003605 261.9274  98.1476 14.98327287 67661,6950.201,96.107,574.572,569.561,0.0
55754.0,STARLINK-5612,PAYLOAD,2024-05-22 04:20:58,14.98320891,0.0003172,69.9999,99.6694,246.8137,113.2688,4.5511e-05,4.5e-06,0.0,0 STARLINK-5612,1 55754U 23028P   24143.18122696  .00000450  00000-0  45511-4 0  9999,2 55754  69.9999  99.6694 0003172 246.8137 113.2688 14.98320891 67700,6950.221,96.108,574.291,569.881,0.0
55754.0,STARLINK-5612,PAYLOAD,2024-05-22 07:33:14,14.98318656,0.0003252,69.999,99.3316,258.2254,101.854,-4.1981e-06,-1.43e-06,0.0,0 STARLINK-5612,1 55754U 23028P   24143.31475025 -.00000143  00000-0 -41981-5 0  9990,2 55754  69.9990  99.3316 0003252 258.2254 101.8540 14.98318656 67723,6950.228,96.108,574.353,569.833,0.0
55754.0,STARLINK-5612,PAYLOAD,2024-05-22 20:22:18,14.98337885,0.0002977,69.9988,97.9845,252.7619,107.3214,-0.00028987,-3.551e-05,0.0,0 STARLINK-5612,1 55754U 23028P   24143.84882629 -.00003551  00000-0 -28987-3 0  9995,2 55754  69.9988  97.9845 0002977 252.7619 107.3214 14.98337885 67801,6950.169,96.106,574.103,569.964,0.0
55754.0,STARLINK-5612,PAYLOAD,2024-05-22 21:58:26,14.9834219,0.0003142,69.9989,97.8144,263.8252,96.2549,-0.00038513,-4.687e-05,0.0,0 STARLINK-5612,1 55754U 23028P   24143.91558671 -.00004687  00000-0 -38513-3 0  9997,2 55754  69.9989  97.8144 0003142 263.8252  96.2549 14.98342190 67817,6950.155,96.106,574.204,569.836,0.0
55754.0,STARLINK-5612,PAYLOAD,2024-05-23 05:59:06,14.98346186,0.0003045,69.9994,96.9727,264.2864,95.7948,-0.00029538,-3.617e-05,0.0,0 STARLINK-5612,1 55754U 23028P   24144.24937927 -.00003617  00000-0 -29538-3 0  9998,2 55754  69.9994  96.9727 0003045 264.2864  95.7948 14.98346186 67867,6950.143,96.106,574.124,569.892,0.0
55754.0,STARLINK-5612,PAYLOAD,2024-05-24 04:24:59,14.98322131,0.0003169,69.9997,94.6154,264.868,95.2118,0.00031169,3.627e-05,0.0,0 STARLINK-5612,1 55754U 23028P   24145.18401898  .00003627  00000-0  31169-3 0  9997,2 55754  69.9997  94.6154 0003169 264.8680  95.2118 14.98322131 68003,6950.217,96.108,574.285,569.88,0.0
55754.0,STARLINK-5612,PAYLOAD,2024-05-24 07:37:15,14.98330335,0.0003149,69.9998,94.2791,263.507,96.5731,0.00024779,2.865e-05,0.0,0 STARLINK-5612,1 55754U 23028P   24145.31753571  .00002865  00000-0  24779-3 0  9992,2 55754  69.9998  94.2791 0003149 263.5070  96.5731 14.98330335 68026,6950.192,96.107,574.245,569.868,0.0
55754.0,STARLINK-5612,PAYLOAD,2024-05-24 22:02:28,14.983232,0.0002733,70.001,92.7654,250.492,109.5944,7.4364e-05,7.94e-06,0.0,0 STARLINK-5612,1 55754U 23028P   24145.91838652  .00000794  00000-0  74364-4 0  9997,2 55754  70.0010  92.7654 0002733 250.4920 109.5944 14.98323200 68116,6950.214,96.107,573.978,570.179,0.0
55754.0,STARLINK-5612,PAYLOAD,2024-05-25 04:27:00,14.98325056,0.0002944,69.9999,92.0906,266.4463,93.6359,7.0954e-05,7.54e-06,0.0,0 STARLINK-5612,1 55754U 23028P   24146.18542716  .00000754  00000-0  70954-4 0  9997,2 55754  69.9999  92.0906 0002944 266.4463  93.6359 14.98325056 68153,6950.208,96.107,574.119,570.027,0.0
55754.0,STARLINK-5612,PAYLOAD,2024-05-25 14:03:49,14.98328191,0.0003057,69.9998,91.0797,266.2435,93.8374,3.6286e-05,3.4e-06,0.0,0 STARLINK-5612,1 55754U 23028P   24146.58598628  .00000340  00000-0  36286-4 0  9995,2 55754  69.9998  91.0797 0003057 266.2435  93.8374 14.98328191 68211,6950.198,96.107,574.188,569.939,0.0
55754.0,STARLINK-5612,PAYLOAD,2024-05-26 04:29:01,14.98335199,0.0003075,69.9994,89.5657,265.7565,94.3242,3.3976e-05,3.12e-06,0.0,0 STARLINK-5612,1 55754U 23028P   24147.18682202  .00000312  00000-0  33976-4 0  9996,2 55754  69.9994  89.5657 0003075 265.7565  94.3242 14.98335199 68308,6950.177,96.107,574.179,569.905,0.0
55754.0,STARLINK-5612,PAYLOAD,2024-05-26 06:05:09,14.98335612,0.0003248,70.0,89.3967,268.6827,91.396,0.00012483,1.397e-05,0.0,0 STARLINK-5612,1 55754U 23028P   24147.25357935  .00001397  00000-0  12483-3 0  9999,2 55754  70.0000  89.3967 0003248 268.6827  91.3960 14.98335612 68311,6950.176,96.107,574.298,569.783,0.0
55754.0,STARLINK-5612,PAYLOAD,2024-05-26 22:06:28,14.98348915,0.0003181,70.0001,87.7136,270.6586,89.4209,0.00035696,4.171e-05,0.0,0 STARLINK-5612,1 55754U 23028P   24147.92115785  .00004171  00000-0  35696-3 0  9992,2 55754  70.0001  87.7136 0003181 270.6586  89.4209 14.98348915 68418,6950.134,96.106,574.21,569.789,0.0
55754.0,STARLINK-5612,PAYLOAD,2024-05-27 04:31:02,14.98318508,0.0002999,69.9995,87.0403,269.5246,90.5569,-6.554e-05,-8.75e-06,0.0,0 STARLINK-5612,1 55754U 23028P   24148.18822582 -.00000875  00000-0 -65540-4 0  9992,2 55754  69.9995  87.0403 0002999 269.5246  90.5569 14.98318508 68454,6950.228,96.108,574.178,570.009,0.0
55754.0,STARLINK-5612,PAYLOAD,2024-05-27 06:07:10,14.98318818,0.0002992,69.9996,86.8725,268.7416,91.34,-6.7639e-05,-9e-06,0.0,0 STARLINK-5612,1 55754U 23028P   24148.25498599 -.00000900  00000-0 -67639-4 0  9997,2 55754  69.9996  86.8725 0002992 268.7416  91.3400 14.98318818 68460,6950.227,96.108,574.172,570.013,0.0
55754.0,STARLINK-5612,PAYLOAD,2024-05-27 20:32:23,14.98324315,0.0003209,69.9991,85.3583,268.5528,91.5264,-9.451e-05,-1.22e-05,0.0,0 STARLINK-5612,1 55754U 23028P   24148.85582473 -.00001220  00000-0 -94510-4 0  9992,2 55754  69.9991  85.3583 0003209 268.5528  91.5264 14.98324315 68554,6950.21,96.107,574.306,569.845,0.0
55754.0,STARLINK-5612,PAYLOAD,2024-05-27 22:08:31,14.98323959,0.0003147,69.9993,85.1894,269.3301,90.7498,-6.1077e-05,-8.22e-06,0.0,0 STARLINK-5612,1 55754U 23028P   24148.92258416 -.00000822  00000-0 -61077-4 0  9996,2 55754  69.9993  85.1894 0003147 269.3301  90.7498 14.98323959 68562,6950.212,96.107,574.264,569.889,0.0
55754.0,STARLINK-5612,PAYLOAD,2024-05-28 04:33:03,14.98331251,0.000298,69.9996,84.5161,268.9367,91.1451,2.519e-06,-6.3e-07,0.0,0 STARLINK-5612,1 55754U 23028P   24149.18961845 -.00000063  00000-0  25190-5 0  9995,2 55754  69.9996  84.5161 0002980 268.9367  91.1451 14.98331251 68609,6950.189,96.107,574.125,569.983,0.0
55754.0,STARLINK-5612,PAYLOAD,2024-05-28 12:33:43,14.98333902,0.0002945,69.9997,83.6743,269.4892,90.5929,-2.0486e-05,-3.37e-06,0.0,0 STARLINK-5612,1 55754U 23028P   24149.52341684 -.00000337  00000-0 -20486-4 0  9993,2 55754  69.9997  83.6743 0002945 269.4892  90.5929 14.98333902 68659,6950.181,96.107,574.093,569.999,0.0
55754.0,STARLINK-5612,PAYLOAD,2024-05-28 22:10:31,14.98316847,0.0002846,69.9999,82.6645,268.315,91.7683,0.00014956,1.691e-05,0.0,0 STARLINK-5612,1 55754U 23028P   24149.92398098  .00001691  00000-0  14956-3 0  9994,2 55754  69.9999  82.6645 0002846 268.3150  91.7683 14.98316847 68712,6950.234,96.108,574.077,570.121,0.0
55754.0,STARLINK-5612,PAYLOAD,2024-05-29 04:35:04,14.98321248,0.0002787,70.0001,81.9913,268.3482,91.7358,0.00019807,2.271e-05,0.0,0 STARLINK-5612,1 55754U 23028P   24150.19101964  .00002271  00000-0  19807-3 0  9994,2 55754  70.0001  81.9913 0002787 268.3482  91.7358 14.98321248 68755,6950.22,96.108,574.022,570.148,0.0
55754.0,STARLINK-5612,PAYLOAD,2024-05-29 22:12:32,14.98330465,0.0002683,70.0004,80.1402,261.4121,98.6734,0.00012125,1.354e-05,0.0,0 STARLINK-5612,1 55754U 23028P   24150.92537919  .00001354  00000-0  12125-3 0  9995,2 55754  70.0004  80.1402 0002683 261.4121  98.6734 14.98330465 68868,6950.191,96.107,573.921,570.192,0.0
55754.0,STARLINK-5612,PAYLOAD,2024-05-30 04:37:04,14.98332858,0.0002648,70.0005,79.467,260.2685,99.8175,0.0001452,1.64e-05,0.0,0 STARLINK-5612,1 55754U 23028P   24151.19241740  .00001640  00000-0  14520-3 0  9998,2 55754  70.0005  79.4670 0002648 260.2685  99.8175 14.98332858 68905,6950.184,96.107,573.889,570.209,0.0
